SL-16 R/B               
1 19120U 88039B   16097.71670231  .00000092  00000-0  66861-4 0  9993
2 19120  71.0148 167.1422 0020442 142.1895 218.0671 14.19146963444462
COSMOS 1953             
1 19210U 88050A   16097.01060147  .00001588  00000-0  11081-3 0  9992
2 19210  82.5150  97.0600 0012535 316.7653  43.2588 15.04672676490956
SL-8 R/B                
1 19257U 88053B   16097.13241845  .00000139  00000-0  55406-4 0  9996
2 19257  74.0481 299.9847 0021258 297.7849 200.8622 14.37299504455976
COSMOS 1975             
1 19573U 88093A   16097.86843667  .00001646  00000-0  11818-3 0  9993
2 19573  82.5218  47.4377 0014472 350.9199   9.1763 15.03596313494233
SL-14 R/B               
1 19574U 88093B   16097.86101108  .00000155  00000-0  15956-4 0  9993
2 19574  82.5347 192.9755 0023148 113.7144  25.6407 14.83140210484772
SL-16 R/B               
1 19650U 88102B   16097.78429737  .00000234  00000-0  14352-3 0  9997
2 19650  71.0002 212.7115 0012745 133.3519 226.8668 14.15737075414227
INTERCOSMOS 24          
1 20261U 89080A   16097.19180775  .00000208  00000-0  55894-4 0  9992
2 20261  82.5916 293.0081 1205023  24.4744 340.8969 12.55752889211112
SL-14 R/B               
1 20262U 89080C   16096.99364940  .00000126  00000-0  31784-4 0  9999
2 20262  82.5952 336.0809 1237706 173.1944 188.7874 12.48799149207577
DELTA 1 R/B             
1 20323U 89089B   16097.16397051  .00000115  00000-0  38853-4 0  9997
2 20323  97.0657 107.4086 0072366  17.0072 343.3526 14.48106514391477
DELTA 2 R/B(1)          
1 20453U 90008B   16097.52938173  .00004357  00000-0  25686-3 0  9991
2 20453  35.6245 272.6465 0295191 140.9613 221.2804 14.81360930383372
COSMOS 2058             
1 20465U 90010A   16097.10434590  .00000585  00000-0  48283-4 0  9993
2 20465  82.4882 307.9806 0014993 331.5790  28.4613 14.97120750419934
SL-14 R/B               
1 20466U 90010B   16097.85166097  .00000143  00000-0  15296-4 0  9998
2 20466  82.5032  60.8401 0019908 335.8357  24.1921 14.81206838412906
SL-14 R/B               
1 20511U 90018B   16097.34064591  .00000157  00000-0  17702-4 0  9996
2 20511  82.5258   0.9045 0019031 104.3309  34.6124 14.79868805407459
HST                     
1 20580U 90037B   16097.56322917  .00001031  00000-0  53588-4 0  9990
2 20580  28.4708  11.6776 0002903 155.8627 212.5904 15.08282572224283
SL-16 R/B               
1 20625U 90046B   16097.15824612 -.00000040  00000-0  40695-5 0  9990
2 20625  71.0018 346.3563 0012607  44.1611  66.5934 14.14599901336038
COSMOS 2084             
1 20663U 90055A   16097.53055655  .00000379  00000-0  51808-4 0  9998
2 20663  62.7929 245.0067 0117386  46.2324 314.8410 14.91120413394682
SL-6 R/B(2)             
1 20666U 90055D   16096.76029249  .00000273  00000-0  41261-4 0  9990
2 20666  62.7838 167.6316 0129631  66.0475 295.4130 14.91494795395921
SL-8 R/B                
1 20775U 90078B   16097.07479909  .00002345  00000-0  12012-3 0  9996
2 20775  82.9323  45.7636 0598455 246.1362 107.6031 14.27965816286329
SL-8 R/B                
1 21088U 91006B   16097.16132161  .00000030  00000-0  14500-4 0  9996
2 21088  82.9447 345.1097 0023889 102.7340   4.9729 13.77032667265456
OKEAN-3                 
1 21397U 91039A   16097.49024321  .00000574  00000-0  53865-4 0  9999
2 21397  82.5245 193.1195 0016625 255.7683 104.1691 14.92152046344653
COSMOS 2151             
1 21422U 91042A   16097.65321555  .00000349  00000-0  32288-4 0  9995
2 21422  82.4985 301.7844 0013274 316.5942  43.4231 14.91586485343427
SL-14 R/B               
1 21423U 91042B   16096.86817679  .00000121  00000-0  13131-4 0  9999
2 21423  82.4969  10.0671 0016273 240.5702 119.3887 14.79622309337919
ERS-1                   
1 21574U 91050A   16097.50161284  .00000100  00000-0  47400-4 0  9994
2 21574  98.4077  47.0151 0032983 177.7822 182.3517 14.37474274294851
ARIANE 40 R/B           
1 21610U 91050F   16097.00280102  .00000055  00000-0  31431-4 0  9997
2 21610  98.6646 143.3468 0003804 151.2560 270.6725 14.40712802296886
INTERCOSMOS 25          
1 21819U 91086A   16096.99055881  .00000063  00000-0  12381-4 0  9990
2 21819  82.5563 325.8732 1525829 296.9905  48.3437 12.04150512 59637
SL-14 R/B               
1 21820U 91086B   16097.84336982  .00000324  00000-0  56884-4 0  9997
2 21820  82.5668  15.8364 1578134 106.3306 271.6631 11.93129897 54741
SL-8 R/B                
1 21876U 92008B   16096.96481575  .00000083  00000-0  70201-4 0  9995
2 21876  82.9240  82.1521 0034895 172.3985 239.6053 13.75581417211042
SL-8 R/B                
1 21938U 92020B   16097.81616988  .00000119  00000-0  10871-3 0  9997
2 21938  82.9300 324.4330 0028608 332.1864  77.7680 13.75236065203319
SL-16 R/B               
1 22220U 92076B   16097.52674285 -.00000256  00000-0 -10460-3 0  9993
2 22220  70.9992 258.3753 0014468 225.3885 198.0420 14.16394337208943
SL-16 R/B               
1 22285U 92093B   16097.42663556 -.00000291  00000-0 -12592-3 0  9998
2 22285  71.0222  48.4837 0002048  54.6504 305.4810 14.14990434200751
COSMOS 2228             
1 22286U 92094A   16097.01916776  .00000470  00000-0  48986-4 0  9994
2 22286  82.5208  66.1906 0021888 129.5313 230.7843 14.87400339236430
SL-16 R/B               
1 22566U 93016B   16096.88369230 -.00000255  00000-0 -10716-3 0  9993
2 22566  71.0061 264.8306 0008110  76.5158 283.6868 14.14922224189414
COSMOS 2242             
1 22626U 93024A   16097.50959992  .00000432  00000-0  44795-4 0  9999
2 22626  82.5196  93.4114 0020478 127.2054 233.1036 14.87406165241237
SL-16 R/B               
1 22803U 93059B   16096.96988652 -.00000143  00000-0 -47557-4 0  9998
2 22803  70.9883  90.7316 0018455 325.0518  34.9393 14.16738109166100
ARIANE 40 R/B           
1 22830U 93061H   16097.55240274 -.00000013  00000-0  12414-4 0  9997
2 22830  98.8856  96.8390 0011880 119.9342 348.1195 14.31403698175781
COSMOS 2278             
1 23087U 94023A   16097.21353404  .00000079  00000-0  66808-4 0  9991
2 23087  71.0552 192.2421 0008362 176.1445 183.9744 14.13718643132730
SL-16 R/B               
1 23088U 94023B   16097.21436733 -.00000148  00000-0 -52109-4 0  9997
2 23088  70.9985 119.1913 0002501 355.2174   4.8924 14.14642796133740
SL-16 R/B               
1 23343U 94074B   16097.14820897  .00000050  00000-0  14758-4 0  9995
2 23343  98.2001 122.5561 0007737  42.4354   3.5640 14.76646557152338
SL-16 R/B               
1 23405U 94077B   16096.96166710 -.00000205  00000-0 -80657-4 0  9998
2 23405  70.9840  54.6511 0005122 268.2485  91.8051 14.15181783103402
ERS-2                   
1 23560U 95021A   16097.84248990  .00003643  00000-0  18017-3 0  9996
2 23560  98.5111  27.6434 0003919   8.2912 351.8383 15.18607140109119
ARIANE 40+ R/B          
1 23561U 95021B   16097.85946815  .00000091  00000-0  45446-4 0  9990
2 23561  98.7661  83.6512 0008084 107.1386 311.4539 14.37725064 98559
SL-16 R/B               
1 23705U 95058B   16097.81142402  .00000229  00000-0  14255-3 0  9992
2 23705  71.0225 224.5558 0014480 246.6634 113.2966 14.15084631 55455
SL-16 R/B               
1 24298U 96051B   16097.47746810 -.00000034  00000-0  78117-5 0  9993
2 24298  70.8320 262.6377 0013946 122.2844 237.9629 14.12392647 10150
ORBVIEW 2 (SEASTAR)     
1 24883U 97037A   16097.19802098  .00000109  00000-0  55317-4 0  9996
2 24883  98.5141 206.2967 0001672 349.4125  10.7024 14.33302879989304
SL-16 R/B               
1 25400U 98043G   16097.87599131  .00000005  00000-0  19738-4 0  9998
2 25400  98.4306  55.5287 0010743 128.6484 231.5659 14.25376405922914
SL-16 R/B               
1 25407U 98045B   16097.78651308  .00000248  00000-0  15070-3 0  9995
2 25407  71.0111 238.4946 0007184 167.5342 192.5960 14.15742314914418
ISS (ZARYA)             
1 25544U 98067A   16097.92258378  .00006005  00000-0  96993-4 0  9998
2 25544  51.6439  53.4688 0002488  46.5537  18.5075 15.54384968993893
SL-8 R/B                
1 25723U 99022C   16097.82128064  .00007892  00000-0  15898-3 0  9995
2 25723  48.4189 322.6923 0011527 102.0994 314.7613 15.47366803938764
CZ-4B R/B               
1 25732U 99025C   16097.00781317 -.00000005  00000-0  19988-4 0  9999
2 25732  98.9694  87.9752 0036360 255.5097 171.8366 14.17604356874597
OKEAN-O                 
1 25860U 99039A   16096.94147450  .00000228  00000-0  40405-4 0  9996
2 25860  98.1369  71.2330 0001924  92.9313 267.2116 14.76327563899216
SL-16 R/B               
1 25861U 99039B   16097.48733905  .00000107  00000-0  22032-4 0  9995
2 25861  98.0460  61.5622 0016795  51.7376  59.4927 14.78297801901250
TERRA                   
1 25994U 99068A   16097.80999551 -.00000018  00000-0  60984-5 0  9992
2 25994  98.2144 173.0964 0001244  72.1907 287.9393 14.57110683867127
SL-14 R/B               
1 26874U 01032B   16097.53444789  .00023637  00000-0  14084-3 0  9991
2 26874  82.4650   0.1660 0009707 108.6438 251.5883 15.77699149824330
ENVISAT                 
1 27386U 02009A   16097.72670902 -.00000014  00000-0  94277-5 0  9993
2 27386  98.2917 153.6744 0001315  84.9130 275.2203 14.37861156738358
IDEFIX & ARIANE 42P R/B 
1 27422U 02021B   16097.52504572  .00000004  00000-0  17496-4 0  9990
2 27422  98.2346 115.9920 0013673  91.6179 268.6570 14.29237248724303
AQUA                    
1 27424U 02022A   16097.55534723  .00000223  00000-0  59661-4 0  9990
2 27424  98.2108  39.2218 0001565  68.2678 291.8103 14.57096634740693
CZ-4B R/B               
1 27432U 02024C   16096.87677731 -.00000007  00000-0  19757-4 0  9995
2 27432  98.9289  63.4527 0050272 189.5697 223.7442 14.14010651716992
MIDORI II (ADEOS-II)    
1 27597U 02056A   16097.85752425  .00000082  00000-0  50569-4 0  9993
2 27597  98.3166  81.4112 0001670 124.0521 236.0820 14.27198684693189
H-2A R/B                
1 27601U 02056E   16097.40992448  .00000077  00000-0  43407-4 0  9998
2 27601  98.4227 173.0543 0072978 148.8761 261.4708 14.31702035695319
